NORAD_CAT_ID,OBJECT_NAME,OBJECT_TYPE,EPOCH,MEAN_MOTION,ECCENTRICITY,INCLINATION,RA_OF_ASC_NODE,ARG_OF_PERICENTER,MEAN_ANOMALY,BSTAR,MEAN_MOTION_DOT,MEAN_MOTION_DDOT,TLE_LINE0,TLE_LINE1,TLE_LINE2,SEMIMAJOR_AXIS,PERIOD,APOGEE,PERIGEE,DECAYED
53410.0,STARLINK-4492,PAYLOAD,2024-04-22 22:13:41,15.08839695,0.0001328,53.218,312.6306,112.1656,247.9477,0.00029215,4.365e-05,0.0,0 STARLINK-4492,1 53410U 22097Y   24113.92617538  .00004365  00000-0  29215-3 0  9995,2 53410  53.2180 312.6306 0001328 112.1656 247.9477 15.08839695 95122,6917.881,95.438,540.665,538.828,0.0
53410.0,STARLINK-4492,PAYLOAD,2024-04-22 23:49:04,15.08840466,0.0001337,53.218,312.3332,113.2953,246.818,0.00028453,4.243e-05,0.0,0 STARLINK-4492,1 53410U 22097Y   24113.99241485  .00004243  00000-0  28453-3 0  9994,2 53410  53.2180 312.3332 0001337 113.2953 246.8180 15.08840466 95138,6917.879,95.438,540.669,538.819,0.0
53410.0,STARLINK-4492,PAYLOAD,2024-04-23 20:29:05,15.08846125,0.0001421,53.219,308.4667,112.9826,247.1316,-1.5456e-05,-5.34e-06,0.0,0 STARLINK-4492,1 53410U 22097Y   24114.85353492 -.00000534  00000-0 -15456-4 0  9993,2 53410  53.2190 308.4667 0001421 112.9826 247.1316 15.08846125 95262,6917.862,95.437,540.71,538.744,0.0
53410.0,STARLINK-4492,PAYLOAD,2024-04-24 12:22:56,15.08839117,0.0001305,53.2182,305.4933,123.8018,236.3099,2.3237e-05,8.2e-07,0.0,0 STARLINK-4492,1 53410U 22097Y   24115.51593674  .00000082  00000-0  23237-4 0  9997,2 53410  53.2182 305.4933 0001305 123.8018 236.3099 15.08839117 94878,6917.883,95.438,540.651,538.845,0.0
53410.0,STARLINK-4492,PAYLOAD,2024-04-24 20:19:52,15.08841111,0.0001292,53.2183,304.0076,116.0538,244.0587,0.00012269,1.665e-05,0.0,0 STARLINK-4492,1 53410U 22097Y   24115.84713276  .00001665  00000-0  12269-3 0  9995,2 53410  53.2183 304.0076 0001292 116.0538 244.0587 15.08841111 95414,6917.877,95.437,540.636,538.848,0.0
53410.0,STARLINK-4492,PAYLOAD,2024-04-25 12:13:43,15.08845,0.0001246,53.2185,301.0362,93.575,266.5384,0.00012059,1.632e-05,0.0,0 STARLINK-4492,1 53410U 22097Y   24116.50952960  .00001632  00000-0  12059-3 0  9995,2 53410  53.2185 301.0362 0001246  93.5750 266.5384 15.08845000 95027,6917.865,95.437,540.592,538.868,0.0
53410.0,STARLINK-4492,PAYLOAD,2024-04-25 18:35:16,15.08840746,0.0001178,53.2184,299.8452,104.1137,255.9986,7.5027e-05,9.06e-06,0.0,0 STARLINK-4492,1 53410U 22097Y   24116.77449284  .00000906  00000-0  75027-4 0  9992,2 53410  53.2184 299.8452 0001178 104.1137 255.9986 15.08840746 95552,6917.878,95.438,540.558,538.928,0.0
53410.0,STARLINK-4492,PAYLOAD,2024-04-26 12:04:30,15.08842364,0.0001128,53.2186,296.5736,106.0569,254.0547,1.2104e-05,-9.5e-07,0.0,0 STARLINK-4492,1 53410U 22097Y   24117.50313384 -.00000095  00000-0  12104-4 0  9992,2 53410  53.2186 296.5736 0001128 106.0569 254.0547 15.08842364 95661,6917.873,95.437,540.518,538.958,0.0
53410.0,STARLINK-4492,PAYLOAD,2024-04-26 18:26:03,15.08845127,0.0001201,53.2188,295.385,87.5797,272.5332,3.2323e-05,2.27e-06,0.0,0 STARLINK-4492,1 53410U 22097Y   24117.76809157  .00000227  00000-0  32323-4 0  9999,2 53410  53.2188 295.3850 0001201  87.5797 272.5332 15.08845127 95707,6917.865,95.437,540.561,538.899,0.0
53410.0,STARLINK-4492,PAYLOAD,2024-04-27 11:55:17,15.08843418,0.0001225,53.2184,292.1138,87.1261,272.9872,9.8553e-05,1.281e-05,0.0,0 STARLINK-4492,1 53410U 22097Y   24118.49672868  .00001281  00000-0  98553-4 0  9995,2 53410  53.2184 292.1138 0001225  87.1261 272.9872 15.08843418 95327,6917.87,95.437,540.582,538.888,0.0
53410.0,STARLINK-4492,PAYLOAD,2024-04-27 21:27:36,15.08841127,0.000111,53.2182,290.3264,95.7901,264.3218,1.9437e-05,2.2e-07,0.0,0 STARLINK-4492,1 53410U 22097Y   24118.89417084  .00000022  00000-0  19437-4 0  9992,2 53410  53.2182 290.3264 0001110  95.7901 264.3218 15.08841127 95878,6917.877,95.437,540.51,538.974,0.0
53410.0,STARLINK-4492,PAYLOAD,2024-04-28 11:46:05,15.08835416,0.0001145,53.218,287.6519,92.9376,267.1747,-1.5619e-05,-5.36e-06,0.0,0 STARLINK-4492,1 53410U 22097Y   24119.49033669 -.00000536  00000-0 -15619-4 0  9992,2 53410  53.2180 287.6519 0001145  92.9376 267.1747 15.08835416 95479,6917.894,95.438,540.551,538.967,0.0
53410.0,STARLINK-4492,PAYLOAD,2024-04-28 14:56:51,15.08830938,0.0001116,53.2179,287.0568,92.8891,267.2228,-5.6701e-05,-1.19e-05,0.0,0 STARLINK-4492,1 53410U 22097Y   24119.62282064 -.00001190  00000-0 -56701-4 0  9996,2 53410  53.2179 287.0568 0001116  92.8891 267.2228 15.08830938 95989,6917.908,95.438,540.545,539.001,0.0
53410.0,STARLINK-4492,PAYLOAD,2024-04-28 18:07:38,15.08830021,0.0001066,53.2183,286.4653,80.3765,279.7348,-5.3891e-05,-1.145e-05,0.0,0 STARLINK-4492,1 53410U 22097Y   24119.75530220 -.00001145  00000-0 -53891-4 0  9997,2 53410  53.2183 286.4653 0001066  80.3765 279.7348 15.08830021 96006,6917.911,95.438,540.513,539.038,0.0
53410.0,STARLINK-4492,PAYLOAD,2024-04-29 14:47:39,15.08827311,0.0001319,53.2202,282.6021,103.0313,257.0827,2.9503e-06,-2.41e-06,0.0,0 STARLINK-4492,1 53410U 22097Y   24120.61642486 -.00000241  00000-0  29503-5 0  9991,2 53410  53.2202 282.6021 0001319 103.0313 257.0827 15.08827311 96131,6917.919,95.438,540.697,538.872,0.0
53410.0,STARLINK-4492,PAYLOAD,2024-04-29 17:58:25,15.08828606,0.0001208,53.2198,282.0077,99.3244,260.7884,2.1627e-05,5.6e-07,0.0,0 STARLINK-4492,1 53410U 22097Y   24120.74890422  .00000056  00000-0  21627-4 0  9991,2 53410  53.2198 282.0077 0001208  99.3244 260.7884 15.08828606 95666,6917.915,95.438,540.616,538.945,0.0
53410.0,STARLINK-4492,PAYLOAD,2024-04-30 03:30:43,15.08841363,0.0001326,53.2203,280.2228,96.7999,263.3144,-1.4635e-05,-5.21e-06,0.0,0 STARLINK-4492,1 53410U 22097Y   24121.14633813 -.00000521  00000-0 -14635-4 0  9995,2 53410  53.2203 280.2228 0001326  96.7999 263.3144 15.08841363 95720,6917.876,95.437,540.659,538.824,0.0
53410.0,STARLINK-4492,PAYLOAD,2024-04-30 14:38:26,15.08829167,0.0001255,53.2207,278.1417,90.133,269.9806,0.00011375,1.522e-05,0.0,0 STARLINK-4492,1 53410U 22097Y   24121.61002467  .00001522  00000-0  11375-3 0  9999,2 53410  53.2207 278.1417 0001255  90.1330 269.9806 15.08829167 96285,6917.914,95.438,540.647,538.91,0.0
53410.0,STARLINK-4492,PAYLOAD,2024-04-30 17:49:12,15.08831052,0.0001253,53.2205,277.5467,89.2904,270.8231,0.00012922,1.769e-05,0.0,0 STARLINK-4492,1 53410U 22097Y   24121.74250380  .00001769  00000-0  12922-3 0  9994,2 53410  53.2205 277.5467 0001253  89.2904 270.8231 15.08831052 95812,6917.908,95.438,540.64,538.906,0.0
53410.0,STARLINK-4492,PAYLOAD,2024-05-01 03:21:30,15.08842644,0.000133,53.2204,275.7613,86.0585,274.0559,0.00010367,1.363e-05,0.0,0 STARLINK-4492,1 53410U 22097Y   24122.13993834  .00001363  00000-0  10367-3 0  9997,2 53410  53.2204 275.7613 0001330  86.0585 274.0559 15.08842644 95874,6917.872,95.437,540.657,538.817,0.0
53410.0,STARLINK-4492,PAYLOAD,2024-05-01 09:43:03,15.08840777,0.0001356,53.2203,274.573,89.856,270.2588,0.00012723,1.738e-05,0.0,0 STARLINK-4492,1 53410U 22097Y   24122.40489861  .00001738  00000-0  12723-3 0  9991,2 53410  53.2203 274.5730 0001356  89.8560 270.2588 15.08840777 96407,6917.878,95.438,540.681,538.805,0.0
53410.0,STARLINK-4492,PAYLOAD,2024-05-02 09:33:50,15.0884081,0.0001876,53.2165,270.1128,81.1575,278.963,6.9322e-05,8.15e-06,0.0,0 STARLINK-4492,1 53410U 22097Y   24123.39849956  .00000815  00000-0  69322-4 0  9998,2 53410  53.2165 270.1128 0001876  81.1575 278.9630 15.08840810 96068,6917.878,95.438,541.041,538.445,0.0
53410.0,STARLINK-4492,PAYLOAD,2024-05-02 14:20:00,15.08833509,0.0001887,53.2177,269.2181,83.2292,276.8915,3.2548e-06,-2.36e-06,0.0,0 STARLINK-4492,1 53410U 22097Y   24123.59722615 -.00000236  00000-0  32548-5 0  9991,2 53410  53.2177 269.2181 0001887  83.2292 276.8915 15.08833509 96587,6917.9,95.438,541.071,538.46,0.0
53410.0,STARLINK-4492,PAYLOAD,2024-05-02 15:55:23,15.08835681,0.0001077,53.2168,268.9206,90.5638,269.5477,-7.1624e-05,-1.427e-05,0.0,0 STARLINK-4492,1 53410U 22097Y   24123.66346515 -.00001427  00000-0 -71624-4 0  9991,2 53410  53.2168 268.9206 0001077  90.5638 269.5477 15.08835681 96100,6917.894,95.438,540.504,539.014,0.0
53410.0,STARLINK-4492,PAYLOAD,2024-05-03 03:03:04,15.08845921,0.000131,53.2189,266.8386,93.2461,266.8681,1.0322e-05,-1.24e-06,0.0,0 STARLINK-4492,1 53410U 22097Y   24124.12713563 -.00000124  00000-0  10322-4 0  9994,2 53410  53.2189 266.8386 0001310  93.2461 266.8681 15.08845921 96175,6917.862,95.437,540.634,538.821,0.0
53410.0,STARLINK-4492,PAYLOAD,2024-05-03 09:24:37,15.08837152,0.000128,53.2189,265.6496,99.166,260.9477,2.8403e-05,1.64e-06,0.0,0 STARLINK-4492,1 53410U 22097Y   24124.39210124  .00000164  00000-0  28403-4 0  9990,2 53410  53.2189 265.6496 0001280  99.1660 260.9477 15.08837152 96216,6917.889,95.438,540.64,538.869,0.0
53410.0,STARLINK-4492,PAYLOAD,2024-05-03 14:10:47,15.08835423,0.0001299,53.2202,264.7581,96.746,263.368,2.0208e-05,3.4e-07,0.0,0 STARLINK-4492,1 53410U 22097Y   24124.59082327  .00000034  00000-0  20208-4 0  9995,2 53410  53.2202 264.7581 0001299  96.7460 263.3680 15.08835423 96737,6917.894,95.438,540.658,538.861,0.0
53410.0,STARLINK-4492,PAYLOAD,2024-05-03 15:46:10,15.08836077,0.0001248,53.2185,264.4594,101.8314,258.2819,3.3042e-05,2.38e-06,0.0,0 STARLINK-4492,1 53410U 22097Y   24124.65706190  .00000238  00000-0  33042-4 0  9999,2 53410  53.2185 264.4594 0001248 101.8314 258.2819 15.08836077 96742,6917.892,95.438,540.621,538.894,0.0
53410.0,STARLINK-4492,PAYLOAD,2024-05-04 12:26:11,15.08826789,0.0001539,53.2174,260.5922,113.8537,246.2617,7.8257e-05,9.57e-06,0.0,0 STARLINK-4492,1 53410U 22097Y   24125.51818556  .00000957  00000-0  78257-4 0  9990,2 53410  53.2174 260.5922 0001539 113.8537 246.2617 15.08826789 96387,6917.921,95.438,540.85,538.721,0.0
53410.0,STARLINK-4492,PAYLOAD,2024-05-05 12:16:57,15.08838281,0.0001285,53.2185,256.1349,102.459,257.6546,7.7077e-05,9.39e-06,0.0,0 STARLINK-4492,1 53410U 22097Y   24126.51178200  .00000939  00000-0  77077-4 0  9995,2 53410  53.2185 256.1349 0001285 102.4590 257.6546 15.08838281 96538,6917.886,95.438,540.64,538.862,0.0
